<?xml version="1.0" encoding="UTF-8"?>
<gpx version="1.1" creator="Trasos (pavyzdys)" xmlns="http://www.topografix.com/GPX/1/1">
  <metadata><name>Kernavės piliakalnių trasa (pavyzdys)</name></metadata>
  <trk>
    <name>Kernavės piliakalnių trasa</name>
    <trkseg>
      <trkpt lat="54.8857" lon="24.8530"/>
      <trkpt lat="54.8872" lon="24.8495"/>
      <trkpt lat="54.8890" lon="24.8460"/>
      <trkpt lat="54.8921" lon="24.8402"/>
      <trkpt lat="54.8950" lon="24.8350"/>
      <trkpt lat="54.8930" lon="24.8300"/>
      <trkpt lat="54.8895" lon="24.8360"/>
      <trkpt lat="54.8868" lon="24.8450"/>
      <trkpt lat="54.8857" lon="24.8530"/>
    </trkseg>
  </trk>
</gpx>
